{
  "type": "FeatureCollection",
  "features": [
    {
      "type": "Feature",
      "properties": {
        "norad_id": 25590,
        "name": "COSMOS 2361",
        "group": "musson",
        "lat": 27.60823640495306,
        "lon": 154.36114220397093,
        "alt_km": 986.7786832852007,
        "timestamp": "2025-12-20T20:38:44.712500+00:00",
        "meta_object_name": "COSMOS 2361",
        "meta_object_id": "1998-076A",
        "meta_epoch": "2025-12-20T09:56:59.199648",
        "meta_mean_motion": 13.73218386,
        "meta_eccentricity": 0.00301672,
        "meta_inclination": 82.9341,
        "meta_ra_of_asc_node": 338.4096,
        "meta_arg_of_pericenter": 243.3487,
        "meta_mean_anomaly": 227.1143,
        "meta_ephemeris_type": 0,
        "meta_classification_type": "U",
        "meta_norad_cat_id": 25590,
        "meta_element_set_no": 999,
        "meta_rev_at_epoch": 35216,
        "meta_bstar": 4.0233293e-05,
        "meta_mean_motion_dot": 5.2e-07,
        "meta_mean_motion_ddot": 0,
        "tle_line1": "1 25590U 98076A   25354.41457407  .00000052  00000+0  40233-4 0  9994",
        "tle_line2": "2 25590  82.9341 338.4096 0030167 243.3487 227.1143 13.73218386352160"
      },
      "geometry": {
        "type": "Point",
        "coordinates": [
          154.36114220397093,
          27.60823640495306
        ]
      }
    },
    {
      "type": "Feature",
      "properties": {
        "norad_id": 26818,
        "name": "COSMOS 2378",
        "group": "musson",
        "lat": -71.09273219292773,
        "lon": -165.04455335596901,
        "alt_km": 983.8143771054865,
        "timestamp": "2025-12-20T20:38:44.712521+00:00",
        "meta_object_name": "COSMOS 2378",
        "meta_object_id": "2001-023A",
        "meta_epoch": "2025-12-20T13:00:00.679392",
        "meta_mean_motion": 13.74142617,
        "meta_eccentricity": 0.00328869,
        "meta_inclination": 82.927,
        "meta_ra_of_asc_node": 353.9394,
        "meta_arg_of_pericenter": 182.9533,
        "meta_mean_anomaly": 294.0488,
        "meta_ephemeris_type": 0,
        "meta_classification_type": "U",
        "meta_norad_cat_id": 26818,
        "meta_element_set_no": 999,
        "meta_rev_at_epoch": 23030,
        "meta_bstar": 2.7994291e-05,
        "meta_mean_motion_dot": 4.2e-07,
        "meta_mean_motion_ddot": 0,
        "tle_line1": "1 26818U 01023A   25354.54167453  .00000042  00000+0  27994-4 0  9995",
        "tle_line2": "2 26818  82.9270 353.9394 0032886 182.9533 294.0488 13.74142617230308"
      },
      "geometry": {
        "type": "Point",
        "coordinates": [
          -165.04455335596901,
          -71.09273219292773
        ]
      }
    },
    {
      "type": "Feature",
      "properties": {
        "norad_id": 27436,
        "name": "COSMOS 2389",
        "group": "musson",
        "lat": 50.355837178865734,
        "lon": 112.38530943342536,
        "alt_km": 976.5960386915012,
        "timestamp": "2025-12-20T20:38:44.712535+00:00",
        "meta_object_name": "COSMOS 2389",
        "meta_object_id": "2002-026A",
        "meta_epoch": "2025-12-20T10:07:13.988352",
        "meta_mean_motion": 13.75155422,
        "meta_eccentricity": 0.00473376,
        "meta_inclination": 82.9509,
        "meta_ra_of_asc_node": 301.2979,
        "meta_arg_of_pericenter": 39.8218,
        "meta_mean_anomaly": 78.8383,
        "meta_ephemeris_type": 0,
        "meta_classification_type": "U",
        "meta_norad_cat_id": 27436,
        "meta_element_set_no": 999,
        "meta_rev_at_epoch": 18254,
        "meta_bstar": 3.1541901e-05,
        "meta_mean_motion_dot": 4.6e-07,
        "meta_mean_motion_ddot": 0,
        "tle_line1": "1 27436U 02026A   25354.42168968  .00000046  00000+0  31542-4 0  9993",
        "tle_line2": "2 27436  82.9509 301.2979 0047337  39.8218  78.8383 13.75155422182545"
      },
      "geometry": {
        "type": "Point",
        "coordinates": [
          112.38530943342536,
          50.355837178865734
        ]
      }
    },
    {
      "type": "Feature",
      "properties": {
        "norad_id": 27818,
        "name": "COSMOS 2398",
        "group": "musson",
        "lat": -0.1543692784271503,
        "lon": -93.30469670387009,
        "alt_km": 993.9034265325554,
        "timestamp": "2025-12-20T20:38:44.712547+00:00",
        "meta_object_name": "COSMOS 2398",
        "meta_object_id": "2003-023A",
        "meta_epoch": "2025-12-20T07:12:44.411328",
        "meta_mean_motion": 13.72386499,
        "meta_eccentricity": 0.00327221,
        "meta_inclination": 82.9484,
        "meta_ra_of_asc_node": 267.1268,
        "meta_arg_of_pericenter": 91.6346,
        "meta_mean_anomaly": 24.8791,
        "meta_ephemeris_type": 0,
        "meta_classification_type": "U",
        "meta_norad_cat_id": 27818,
        "meta_element_set_no": 999,
        "meta_rev_at_epoch": 12920,
        "meta_bstar": 5.6612216e-05,
        "meta_mean_motion_dot": 6.7e-07,
        "meta_mean_motion_ddot": 0,
        "tle_line1": "1 27818U 03023A   25354.30051402  .00000067  00000+0  56612-4 0  9994",
        "tle_line2": "2 27818  82.9484 267.1268 0032722  91.6346  24.8791 13.72386499129207"
      },
      "geometry": {
        "type": "Point",
        "coordinates": [
          -93.30469670387009,
          -0.1543692784271503
        ]
      }
    },
    {
      "type": "Feature",
      "properties": {
        "norad_id": 28380,
        "name": "COSMOS 2407",
        "group": "musson",
        "lat": -49.288870882105364,
        "lon": -161.3765154241042,
        "alt_km": 979.8445650889635,
        "timestamp": "2025-12-20T20:38:44.712558+00:00",
        "meta_object_name": "COSMOS 2407",
        "meta_object_id": "2004-028A",
        "meta_epoch": "2025-12-20T14:10:54.438240",
        "meta_mean_motion": 13.7631457,
        "meta_eccentricity": 0.00399687,
        "meta_inclination": 82.9598,
        "meta_ra_of_asc_node": 207.0797,
        "meta_arg_of_pericenter": 33.4431,
        "meta_mean_anomaly": 23.5791,
        "meta_ephemeris_type": 0,
        "meta_classification_type": "U",
        "meta_norad_cat_id": 28380,
        "meta_element_set_no": 999,
        "meta_rev_at_epoch": 7531,
        "meta_bstar": 5.6524338e-05,
        "meta_mean_motion_dot": 7.1e-07,
        "meta_mean_motion_ddot": 0,
        "tle_line1": "1 28380U 04028A   25354.59090785  .00000071  00000+0  56524-4 0  9990",
        "tle_line2": "2 28380  82.9598 207.0797 0039968  33.4431  23.5791 13.76314570 75319"
      },
      "geometry": {
        "type": "Point",
        "coordinates": [
          -161.3765154241042,
          -49.288870882105364
        ]
      }
    },
    {
      "type": "Feature",
      "properties": {
        "norad_id": 28521,
        "name": "COSMOS 2414",
        "group": "musson",
        "lat": -13.017343888701799,
        "lon": 0.15886222489829693,
        "alt_km": 932.9767893054213,
        "timestamp": "2025-12-20T20:38:44.712568+00:00",
        "meta_object_name": "COSMOS 2414",
        "meta_object_id": "2005-002A",
        "meta_epoch": "2025-12-20T11:04:18.679584",
        "meta_mean_motion": 13.87903921,
        "meta_eccentricity": 0.00412724,
        "meta_inclination": 82.9488,
        "meta_ra_of_asc_node": 178.8209,
        "meta_arg_of_pericenter": 118.2138,
        "meta_mean_anomaly": 242.3203,
        "meta_ephemeris_type": 0,
        "meta_classification_type": "U",
        "meta_norad_cat_id": 28521,
        "meta_element_set_no": 999,
        "meta_rev_at_epoch": 5902,
        "meta_bstar": 3.9412686e-05,
        "meta_mean_motion_dot": 6.3e-07,
        "meta_mean_motion_ddot": 0,
        "tle_line1": "1 28521U 05002A   25354.46132731  .00000063  00000+0  39413-4 0  9993",
        "tle_line2": "2 28521  82.9488 178.8209 0041272 118.2138 242.3203 13.87903921 59029"
      },
      "geometry": {
        "type": "Point",
        "coordinates": [
          0.15886222489829693,
          -13.017343888701799
        ]
      }
    },
    {
      "type": "Feature",
      "properties": {
        "norad_id": 32052,
        "name": "COSMOS 2429",
        "group": "musson",
        "lat": -45.83987449881749,
        "lon": -29.966557589621466,
        "alt_km": 974.2735969626474,
        "timestamp": "2025-12-20T20:38:44.712579+00:00",
        "meta_object_name": "COSMOS 2429",
        "meta_object_id": "2007-038A",
        "meta_epoch": "2025-12-20T10:23:29.942880",
        "meta_mean_motion": 13.75150171,
        "meta_eccentricity": 0.00388018,
        "meta_inclination": 82.9806,
        "meta_ra_of_asc_node": 337.637,
        "meta_arg_of_pericenter": 16.7559,
        "meta_mean_anomaly": 343.4869,
        "meta_ephemeris_type": 0,
        "meta_classification_type": "U",
        "meta_norad_cat_id": 32052,
        "meta_element_set_no": 999,
        "meta_rev_at_epoch": 91708,
        "meta_bstar": 3.8484499e-05,
        "meta_mean_motion_dot": 5.2e-07,
        "meta_mean_motion_ddot": 0,
        "tle_line1": "1 32052U 07038A   25354.43298545  .00000052  00000+0  38484-4 0  9996",
        "tle_line2": "2 32052  82.9806 337.6370 0038801  16.7559 343.4869 13.75150171917082"
      },
      "geometry": {
        "type": "Point",
        "coordinates": [
          -29.966557589621466,
          -45.83987449881749
        ]
      }
    },
    {
      "type": "Feature",
      "properties": {
        "norad_id": 35635,
        "name": "COSMOS 2454",
        "group": "musson",
        "lat": -57.70377034167868,
        "lon": 151.2081502321987,
        "alt_km": 941.0683928154413,
        "timestamp": "2025-12-20T20:38:44.712589+00:00",
        "meta_object_name": "COSMOS 2454",
        "meta_object_id": "2009-039A",
        "meta_epoch": "2025-12-20T12:35:30.941952",
        "meta_mean_motion": 13.89929571,
        "meta_eccentricity": 0.00202204,
        "meta_inclination": 82.9556,
        "meta_ra_of_asc_node": 162.7435,
        "meta_arg_of_pericenter": 52.8958,
        "meta_mean_anomaly": 10.81,
        "meta_ephemeris_type": 0,
        "meta_classification_type": "U",
        "meta_norad_cat_id": 35635,
        "meta_element_set_no": 999,
        "meta_rev_at_epoch": 83258,
        "meta_bstar": 3.0934001e-05,
        "meta_mean_motion_dot": 5.4e-07,
        "meta_mean_motion_ddot": 0,
        "tle_line1": "1 35635U 09039A   25354.52466368  .00000054  00000+0  30934-4 0  9993",
        "tle_line2": "2 35635  82.9556 162.7435 0020220  52.8958  10.8100 13.89929571832580"
      },
      "geometry": {
        "type": "Point",
        "coordinates": [
          151.2081502321987,
          -57.70377034167868
        ]
      }
    },
    {
      "type": "Feature",
      "properties": {
        "norad_id": 36519,
        "name": "COSMOS 2463",
        "group": "musson",
        "lat": 11.753819782876517,
        "lon": -160.72810171075577,
        "alt_km": 997.7848688507402,
        "timestamp": "2025-12-20T20:38:44.712600+00:00",
        "meta_object_name": "COSMOS 2463",
        "meta_object_id": "2010-017A",
        "meta_epoch": "2025-12-20T13:21:22.063104",
        "meta_mean_motion": 13.71649782,
        "meta_eccentricity": 0.00347438,
        "meta_inclination": 82.9605,
        "meta_ra_of_asc_node": 20.9682,
        "meta_arg_of_pericenter": 265.548,
        "meta_mean_anomaly": 203.9135,
        "meta_ephemeris_type": 0,
        "meta_classification_type": "U",
        "meta_norad_cat_id": 36519,
        "meta_element_set_no": 999,
        "meta_rev_at_epoch": 78344,
        "meta_bstar": 4.2601341e-05,
        "meta_mean_motion_dot": 5.3e-07,
        "meta_mean_motion_ddot": 0,
        "tle_line1": "1 36519U 10017A   25354.55650536  .00000053  00000+0  42601-4 0  9991",
        "tle_line2": "2 36519  82.9605  20.9682 0034743 265.5480 203.9135 13.71649782783441"
      },
      "geometry": {
        "type": "Point",
        "coordinates": [
          -160.72810171075577,
          11.753819782876517
        ]
      }
    }
  ]
}